[{"OBJECT_NAME":"STARLINK-33962","OBJECT_ID":"2025-098AA","EPOCH":"2026-03-09T21:08:05.537760","MEAN_MOTION":14.98334072,"ECCENTRICITY":0.00029044,"INCLINATION":70.0006,"RA_OF_ASC_NODE":273.8662,"ARG_OF_PERICENTER":266.7176,"MEAN_ANOMALY":93.3651,"EPHEMERIS_TYPE":0,"CLASSIFICATION_TYPE":"U","NORAD_CAT_ID":63950,"ELEMENT_SET_NO":999,"REV_AT_EPOCH":4658,"BSTAR":0.00019731083,"MEAN_MOTION_DOT":2.262e-5,"MEAN_MOTION_DDOT":0},{"OBJECT_NAME":"MACSAT 2 (M 2)","OBJECT_ID":"1990-043B","EPOCH":"2026-03-09T23:13:24.152160","MEAN_MOTION":14.80502521,"ECCENTRICITY":0.00823046,"INCLINATION":89.7422,"RA_OF_ASC_NODE":248.3117,"ARG_OF_PERICENTER":163.6376,"MEAN_ANOMALY":196.7535,"EPHEMERIS_TYPE":0,"CLASSIFICATION_TYPE":"U","NORAD_CAT_ID":20608,"ELEMENT_SET_NO":999,"REV_AT_EPOCH":92371,"BSTAR":0.00022904722,"MEAN_MOTION_DOT":1.876e-5,"MEAN_MOTION_DDOT":0}]
